CARTOSAT-2F             
1 43111U 18004A   26164.25649588  .00005028  00000+0  24223-3 0  9999
2 43111  97.4793 223.9294 0000432 260.5915  99.5271 15.19186186466734
LEO 1 (LEO VANTAGE 1)   
1 43113U 18004C   26164.29660793  .00003106  00000+0  21636-3 0  9996
2 43113  99.2440  82.0791 0351290  91.3966 272.7497 14.67775647436918
LKW-3                   
1 43146U 18006A   26164.33862505  .00010029  00000+0  29613-3 0  9999
2 43146  97.6599 324.7619 0002333 341.6068  18.5090 15.35176237468120
ASNARO-2                
1 43152U 18007A   26163.78230220  .00009888  00000+0  43036-3 0  9994
2 43152  97.3968 170.7780 0001836  93.8450 266.2997 15.22432363466745
JILIN-1 07              
1 43159U 18008E   26164.31125104  .00009065  00000+0  27170-3 0  9994
2 43159  97.1769 184.3431 0010089  76.7725 283.4643 15.34661479464403
JILIN-1 08              
1 43160U 18008F   26164.24370833  .00005542  00000+0  17245-3 0  9997
2 43160  97.1801 183.5979 0008086  90.6956 269.5213 15.33668362464343
SBIRS GEO-3 (USA 282)   
1 43162U 18009A   26164.01743601  .00000140  00000+0  00000+0 0  9998
2 43162   2.1809  11.8934 0001845  64.7112  31.6151  1.00271669 30803
WEINA 1A                
1 43169U 18011A   26164.27127499  .00001791  00000+0  13984-3 0  9999
2 43169  34.9938 185.6891 0002444 352.8602   7.2071 15.00977770457533
YAOGAN-30 05A           
1 43170U 18011B   26164.31584411  .00002021  00000+0  15041-3 0  9990
2 43170  34.9946 174.5424 0003927 290.0370  69.9915 15.02726714457562
YAOGAN-30 05B           
1 43171U 18011C   26164.31110767  .00002170  00000+0  16142-3 0  9998
2 43171  34.9935 174.3348 0002197 285.0742  74.9723 15.02696237457636
YAOGAN-30 05C           
1 43172U 18011D   26164.30507779  .00002149  00000+0  15991-3 0  9998
2 43172  34.9949 174.6178 0001502  14.9130 345.1623 15.02697786457503
AL YAH 3                
1 43174U 18012A   26164.25892507 -.00000144  00000+0  00000+0 0  9996
2 43174   1.5413  83.1523 0003886 358.5457 252.9900  1.00270295 30803
SES-14                  
1 43175U 18012B   26163.68305681 -.00000264  00000+0  00000+0 0  9998
2 43175   0.0183  23.5512 0000900  47.9925  27.8622  1.00267076  6986
KANOPUS-V 3             
1 43180U 18014A   26164.26755821  .00002397  00000+0  10500-3 0  9994
2 43180  97.3590  69.8702 0001669  82.7491 277.3935 15.22974423464128
KANOPUS-V 4             
1 43181U 18014B   26164.30072795  .00002465  00000+0  10796-3 0  9995
2 43181  97.3599  70.0596 0001751  82.2546 277.8889 15.22954695464145
S-NET D                 
1 43186U 18014G   26164.23939796  .00004913  00000+0  25442-3 0  9999
2 43186  97.5371  69.0549 0009323  42.3209 317.8742 15.16637658458160
S-NET B                 
1 43187U 18014H   26164.25077382  .00004746  00000+0  24608-3 0  9993
2 43187  97.5380  69.0529 0009847  37.7627 322.4295 15.16608334458166
S-NET A                 
1 43188U 18014J   26164.23829673  .00004895  00000+0  25344-3 0  9993
2 43188  97.5389  69.2482 0009715  38.5958 321.5967 15.16645203458168
S-NET C                 
1 43189U 18014K   26164.25463002  .00004861  00000+0  25194-3 0  9992
2 43189  97.5405  69.3388 0010893  30.6747 329.5121 15.16600549456715
ZHANGHENG 1-01 (CSES-1) 
1 43194U 18015C   26164.25696028  .00007775  00000+0  35495-3 0  9997
2 43194  97.6860 329.8369 0017021 281.2443  78.6879 15.20765447464048
BEIDOU-3 M4             
1 43207U 18018A   26160.14697391 -.00000046  00000+0  00000+0 0  9998
2 43207  56.6431  63.4146 0007688  17.0743 342.9760  1.86231351 56594
BEIDOU-3 M3             
1 43208U 18018B   26163.97214358 -.00000055  00000+0  00000+0 0  9991
2 43208  56.6466  63.2922 0008703 341.1081  18.8849  1.86231082 56664
PAZ                     
1 43215U 18020A   26164.28664286  .00001732  00000+0  85617-4 0  9990
2 43215  97.4454 171.7279 0001696  87.7812 272.3616 15.19160204460410
GOES 17                 
1 43226U 18022A   26164.24514728 -.00000170  00000+0  00000+0 0  9999
2 43226   0.9269  85.7804 0000427  30.2263 144.3165  1.00270379 30383
HISPASAT 30W-6          
1 43228U 18023A   26163.68658536 -.00000202  00000+0  00000+0 0  9991
2 43228   0.0443  40.2253 0005884  26.7418  51.2166  1.00269570 30364
PODSAT                  
1 43229U 18023B   26164.19154222  .00087155 -28713-6  71554-3 0  9998
2 43229  26.8156 125.9557 3481215 110.5337 289.8242  8.57260676192439
O3B FM15                
1 43231U 18024A   26163.89510859 -.00000011  00000+0  00000+0 0  9992
2 43231   0.0515   2.2245 0002621  78.1016 279.7053  5.00115741150817
O3B FM16                
1 43232U 18024B   26163.94744330 -.00000011  00000+0  00000+0 0  9992
2 43232   0.0509   6.8513 0002643  72.8770 280.3032  5.00115897150739
O3B FM14                
1 43233U 18024C   26163.78835485 -.00000011  00000+0  00000+0 0  9997
2 43233   0.0495   7.6726 0002890  73.8960 278.4659  5.00115695150734
O3B FM13                
1 43234U 18024D   26160.85586579 -.00000009  00000+0  00000+0 0  9997
2 43234   0.0430 323.9452 0002625  69.1214 326.9522  5.00115821150694
LKW-4                   
1 43236U 18025A   26164.04367431  .00040137  00000+0  46088-3 0  9994
2 43236  97.6336 334.5940 0001786 313.0184  47.0923 15.61957279459380
