OBJECT_NAME,OBJECT_ID,EPOCH,MEAN_MOTION,ECCENTRICITY,INCLINATION,RA_OF_ASC_NODE,ARG_OF_PERICENTER,MEAN_ANOMALY,EPHEMERIS_TYPE,CLASSIFICATION_TYPE,NORAD_CAT_ID,ELEMENT_SET_NO,REV_AT_EPOCH,BSTAR,MEAN_MOTION_DOT,MEAN_MOTION_DDOT
CARTOSAT-2F,2018-004A,2026-06-13T06:09:21.244032,15.19186186,.00004326,97.4793,223.9294,260.5915,99.5271,0,U,43111,999,46673,.2422274E-3,.5028E-4,0
LEO 1 (LEO VANTAGE 1),2018-004C,2026-06-13T07:07:06.925152,14.67775647,.03512909,99.2440,82.0791,91.3966,272.7497,0,U,43113,999,43691,.21636114E-3,.3106E-4,0
LKW-3,2018-006A,2026-06-13T08:07:37.204320,15.35176237,.0002333,97.6599,324.7619,341.6068,18.5090,0,U,43146,999,46812,.29613358E-3,.10029E-3,0
ASNARO-2,2018-007A,2026-06-12T18:46:30.910080,15.22432363,.00018369,97.3968,170.7780,93.8450,266.2997,0,U,43152,999,46674,.43036379E-3,.9888E-4,0
JILIN-1 07,2018-008E,2026-06-13T07:28:12.089856,15.34661479,.00100894,97.1769,184.3431,76.7725,283.4643,0,U,43159,999,46440,.27169518E-3,.9065E-4,0
JILIN-1 08,2018-008F,2026-06-13T05:50:56.399712,15.33668362,.00080864,97.1801,183.5979,90.6956,269.5213,0,U,43160,999,46434,.17244836E-3,.5542E-4,0
SBIRS GEO-3 (USA 282),2018-009A,2026-06-13T00:25:06.471264,1.00271669,.00018453,2.1809,11.8934,64.7112,31.6151,0,U,43162,999,3080,0,.14E-5,0
WEINA 1A,2018-011A,2026-06-13T06:30:38.159136,15.00977770,.00024445,34.9938,185.6891,352.8602,7.2071,0,U,43169,999,45753,.13983955E-3,.1791E-4,0
YAOGAN-30 05A,2018-011B,2026-06-13T07:34:48.931104,15.02726714,.00039276,34.9946,174.5424,290.0370,69.9915,0,U,43170,999,45756,.15041424E-3,.2021E-4,0
YAOGAN-30 05B,2018-011C,2026-06-13T07:27:59.702688,15.02696237,.00021978,34.9935,174.3348,285.0742,74.9723,0,U,43171,999,45763,.16142305E-3,.217E-4,0
YAOGAN-30 05C,2018-011D,2026-06-13T07:19:18.721056,15.02697786,.00015022,34.9949,174.6178,14.9130,345.1623,0,U,43172,999,45750,.15991385E-3,.2149E-4,0
AL YAH 3,2018-012A,2026-06-13T06:12:51.126048,1.00270295,.00038869,1.5413,83.1523,358.5457,252.9900,0,U,43174,999,3080,0,-.144E-5,0
SES-14,2018-012B,2026-06-12T16:23:36.108384,1.00267076,.00009004,0.0183,23.5512,47.9925,27.8622,0,U,43175,999,698,0,-.264E-5,0
KANOPUS-V 3,2018-014A,2026-06-13T06:25:17.029344,15.22974423,.00016695,97.3590,69.8702,82.7491,277.3935,0,U,43180,999,46412,.10500271E-3,.2397E-4,0
KANOPUS-V 4,2018-014B,2026-06-13T07:13:02.894880,15.22954695,.00017514,97.3599,70.0596,82.2546,277.8889,0,U,43181,999,46414,.10795801E-3,.2465E-4,0
S-NET D,2018-014G,2026-06-13T05:44:43.983744,15.16637658,.00093236,97.5371,69.0549,42.3209,317.8742,0,U,43186,999,45816,.25442246E-3,.4913E-4,0
S-NET B,2018-014H,2026-06-13T06:01:06.858048,15.16608334,.00098477,97.5380,69.0529,37.7627,322.4295,0,U,43187,999,45816,.24608371E-3,.4746E-4,0
S-NET A,2018-014J,2026-06-13T05:43:08.837472,15.16645203,.00097153,97.5389,69.2482,38.5958,321.5967,0,U,43188,999,45816,.2534356E-3,.4895E-4,0
S-NET C,2018-014K,2026-06-13T06:06:40.033728,15.16600549,.00108939,97.5405,69.3388,30.6747,329.5121,0,U,43189,999,45671,.25193866E-3,.4861E-4,0
ZHANGHENG 1-01 (CSES-1),2018-015C,2026-06-13T06:10:01.368192,15.20765447,.00170217,97.6860,329.8369,281.2443,78.6879,0,U,43194,999,46404,.35495101E-3,.7775E-4,0
BEIDOU-3 M4,2018-018A,2026-06-09T03:31:38.545824,1.86231351,.00076882,56.6431,63.4146,17.0743,342.9760,0,U,43207,999,5659,0,-.46E-6,0
BEIDOU-3 M3,2018-018B,2026-06-12T23:19:53.205312,1.86231082,.00087033,56.6466,63.2922,341.1081,18.8849,0,U,43208,999,5666,0,-.55E-6,0
PAZ,2018-020A,2026-06-13T06:52:45.943104,15.19160204,.00016966,97.4454,171.7279,87.7812,272.3616,0,U,43215,999,46041,.85616836E-4,.1732E-4,0
GOES 17,2018-022A,2026-06-13T05:53:00.724992,1.00270379,.00004279,0.9269,85.7804,30.2263,144.3165,0,U,43226,999,3038,0,-.17E-5,0
HISPASAT 30W-6,2018-023A,2026-06-12T16:28:40.975104,1.00269570,.00058845,0.0443,40.2253,26.7418,51.2166,0,U,43228,999,3036,0,-.202E-5,0
PODSAT,2018-023B,2026-06-13T04:35:49.247808,8.57260676,.34812158,26.8156,125.9557,110.5337,289.8242,0,U,43229,999,19243,.7155366E-3,.87155E-3,-.287132E-6
O3B FM15,2018-024A,2026-06-12T21:28:57.382176,5.00115741,.00026214,0.0515,2.2245,78.1016,279.7053,0,U,43231,999,15081,0,-.11E-6,0
O3B FM16,2018-024B,2026-06-12T22:44:19.101120,5.00115897,.00026437,0.0509,6.8513,72.8770,280.3032,0,U,43232,999,15073,0,-.11E-6,0
O3B FM14,2018-024C,2026-06-12T18:55:13.859040,5.00115695,.000289,0.0495,7.6726,73.8960,278.4659,0,U,43233,999,15073,0,-.11E-6,0
O3B FM13,2018-024D,2026-06-09T20:32:26.804256,5.00115821,.00026253,0.0430,323.9452,69.1214,326.9522,0,U,43234,999,15069,0,-.9E-7,0
LKW-4,2018-025A,2026-06-13T01:02:53.460384,15.61957279,.00017864,97.6336,334.5940,313.0184,47.0923,0,U,43236,999,45938,.46087873E-3,.40137E-3,0
